API VERSION: 1.2
API SOURCE: NASA/JPL Horizons API

*******************************************************************************
 Revised: April 12, 2021               Jupiter                              599
 
 PHYSICAL DATA (revised 2025-Jan-30):
  Mass x 10^26 (kg)     = 18.9819           Density (g/cm^3)  = 1.3262 +- .0003
  Equat. radius (1 bar) = 71492+-4 km       Polar radius (km)     = 66854+-10
  Vol. Mean Radius (km) = 69911+-6          Flattening            = 0.06487
  Geometric Albedo      = 0.52              Rocky core mass (Mc/M)= 0.0261
  Sid. rot. period (III)= 9h 55m 29.711 s   Sid. rot. rate (rad/s)= 0.00017585
  Mean solar day, hrs   = ~9.9259         
  GM (km^3/s^2)         = 126686531.900     GM 1-sigma (km^3/s^2) =  +- 1.2732
  Equ. grav, ge (m/s^2) = 24.79             Pol. grav, gp (m/s^2) =  28.34
  Vis. magnitude V(1,0) = -9.40
  Vis. mag. (opposition)= -2.70             Obliquity to orbit    =  3.13 deg
  Sidereal orbit period = 11.861982204 y    Sidereal orbit period = 4332.589 d
  Mean daily motion     = 0.0831294 deg/d   Mean orbit speed, km/s= 13.0697
  Atmos. temp. (1 bar)  = 165+-5 K          Escape speed, km/s    =  59.5           
  A_roche(ice)/Rp       =  2.76             Hill's sphere rad. Rp = 740
                                 Perihelion   Aphelion     Mean
  Solar Constant (W/m^2)         56           46           51
  Maximum Planetary IR (W/m^2)   13.7         13.4         13.6
  Minimum Planetary IR (W/m^2)   13.7         13.4         13.6
*******************************************************************************


*******************************************************************************
Ephemeris / API_USER Thu Feb 19 13:06:19 2026 Pasadena, USA      / Horizons
*******************************************************************************
Target body name: Jupiter (599)                   {source: jup365_merged}
Center body name: Sun (10)                        {source: jup365_merged}
Center-site name: BODY CENTER
*******************************************************************************
Start time      : A.D. 2028-Jun-22 00:46:00.0000 TDB
Stop  time      : A.D. 2028-Jun-25 00:46:00.0000 TDB
Step-size       : 60 minutes
*******************************************************************************
Center geodetic : 0.0, 0.0, 0.0                   {E-lon(deg),Lat(deg),Alt(km)}
Center cylindric: 0.0, 0.0, 0.0                   {E-lon(deg),Dxy(km),Dz(km)}
Center radii    : 695700.0, 695700.0, 695700.0 km {Equator_a, b, pole_c}
Output units    : AU-D
Calendar mode   : Mixed Julian/Gregorian
Output type     : GEOMETRIC cartesian states
Output format   : 3 (position, velocity, LT, range, range-rate)
Reference frame : Ecliptic of J2000.0
*******************************************************************************
JDTDB
   X     Y     Z
   VX    VY    VZ
   LT    RG    RR
*******************************************************************************
$$SOE
2461945.490277778 = A.D. 2028-Jun-22 23:46:00.0000 TDB 
 X =-5.444053660073215E+00 Y = 3.902404037152680E-03 Z = 1.217905852516688E-01
 VX=-9.324098177383243E-05 VY=-7.200539273777249E-03 VZ= 3.202733653393114E-05
 LT= 3.145010683287631E-02 RG= 5.445417195143984E+00 RR= 8.877375328645050E-05
2461945.531944444 = A.D. 2028-Jun-23 00:46:00.0000 TDB 
 X =-5.444057535589981E+00 Y = 3.602381417122016E-03 Z = 1.217919195360336E-01
 VX=-9.278317241998135E-05 VY=-7.200545156929823E-03 VZ= 3.201837109188639E-05
 LT= 3.145012818869673E-02 RG= 5.445420892789666E+00 RR= 8.871259124116876E-05
2461945.573611111 = A.D. 2028-Jun-23 01:46:00.0000 TDB 
 X =-5.444061391959131E+00 Y = 3.302358722807913E-03 Z = 1.217932534541328E-01
 VX=-9.232211753443501E-05 VY=-7.200542738254152E-03 VZ= 3.200975620602041E-05
 LT= 3.145014952938322E-02 RG= 5.445424587814991E+00 RR= 8.864819724127478E-05
2461945.615277778 = A.D. 2028-Jun-23 02:46:00.0000 TDB 
 X =-5.444065229073674E+00 Y = 3.002336311295106E-03 Z = 1.217945870205636E-01
 VX=-9.185918526114664E-05 VY=-7.200531516841696E-03 VZ= 3.200148995107599E-05
 LT= 3.145017085432093E-02 RG= 5.445428280113497E+00 RR= 8.858193748172677E-05
2461945.656944444 = A.D. 2028-Jun-23 03:46:00.0000 TDB 
 X =-5.444069046884964E+00 Y = 2.702314556045919E-03 Z = 1.217959202496598E-01
 VX=-9.139580227661666E-05 VY=-7.200511208632360E-03 VZ= 3.199356165073778E-05
 LT= 3.145019216323139E-02 RG= 5.445431969636972E+00 RR= 8.851523624024586E-05
2461945.698611111 = A.D. 2028-Jun-23 04:46:00.0000 TDB 
 X =-5.444072845404428E+00 Y = 2.402293837758098E-03 Z = 1.217972531551337E-01
 VX=-9.093341967273614E-05 VY=-7.200481750651909E-03 VZ= 3.198595223253273E-05
 LT= 3.145021345618251E-02 RG= 5.445435656397171E+00 RR= 8.844954184653232E-05
2461945.740277778 = A.D. 2028-Jun-23 05:46:00.0000 TDB 
 X =-5.444076624703881E+00 Y = 2.102274535154086E-03 Z = 1.217985857497373E-01
 VX=-9.047347964860215E-05 VY=-7.200443300146615E-03 VZ= 3.197863475878187E-05
 LT= 3.145023473359024E-02 RG= 5.445439340466116E+00 RR= 8.838629346764274E-05
2461945.781944444 = A.D. 2028-Jun-23 06:46:00.0000 TDB 
 X =-5.444080384914490E+00 Y = 1.802257015903947E-03 Z = 1.217999180449474E-01
 VX=-9.001738379345180E-05 VY=-7.200396229116015E-03 VZ= 3.197157510447902E-05
 LT= 3.145025599621259E-02 RG= 5.445443021975054E+00 RR= 8.832688948842970E-05
2461945.823611111 = A.D. 2028-Jun-23 07:46:00.0000 TDB 
 X =-5.444084126224457E+00 Y = 1.502241627862951E-03 Z = 1.218012500506833E-01
 VX=-8.956646343776936E-05 VY=-7.200341114764560E-03 VZ= 3.196473275566392E-05
 LT= 3.145027724513619E-02 RG= 5.445446701112125E+00 RR= 8.827265796123146E-05
2461945.865277778 = A.D. 2028-Jun-23 08:46:00.0000 TDB 
 X =-5.444087848875515E+00 Y = 1.202228690784307E-03 Z = 1.218025817750583E-01
 VX=-8.912195221248530E-05 VY=-7.200278726298652E-03 VZ= 3.195806170873975E-05
 LT= 3.145029848175604E-02 RG= 5.445450378118868E+00 RR= 8.822482926238126E-05
2461945.906944444 = A.D. 2028-Jun-23 09:46:00.0000 TDB 
 X =-5.444091553158317E+00 Y = 9.022184886535768E-04 Z = 1.218039132241717E-01
 VX=-8.868496065372354E-05 VY=-7.200210008307908E-03 VZ= 3.195151146084729E-05
 LT= 3.145031970774891E-02 RG= 5.445454053285609E+00 RR= 8.818451079117056E-05
2461945.948611111 = A.D. 2028-Jun-23 10:46:00.0000 TDB 
 X =-5.444095239406806E+00 Y = 6.022112627861673E-04 Z = 1.218052444019433E-01
 VX=-8.825645252107018E-05 VY=-7.200136060744619E-03 VZ= 3.194502809083501E-05
 LT= 3.145034092504088E-02 RG= 5.445457726945833E+00 RR= 8.815266337780973E-05
2461945.990277778 = A.D. 2028-Jun-23 11:46:00.0000 TDB 
 X =-5.444098907991645E+00 Y = 3.022072058321204E-04 Z = 1.218065753099952E-01
 VX=-8.783722259748983E-05 VY=-7.200058115359801E-03 VZ= 3.193855543456516E-05
 LT= 3.145036213576941E-02 RG= 5.445461399469631E+00 RR= 8.813007916716036E-05
2461946.031944444 = A.D. 2028-Jun-23 12:46:00.0000 TDB 
 X =-5.444102559312725E+00 Y = 2.206456838430983E-06 Z = 1.218079059475845E-01
 VX=-8.742787629133756E-05 VY=-7.199977508538609E-03 VZ= 3.193203634960873E-05
 LT= 3.145038334224019E-02 RG= 5.445465071256224E+00 RR= 8.811736129693505E-05
2461946.073611111 = A.D. 2028-Jun-23 13:46:00.0000 TDB 
 X =-5.444106193790918E+00 Y =-2.977909024893625E-04 Z = 1.218092363115898E-01
 VX=-8.702881260210333E-05 VY=-7.199895651054480E-03 VZ= 3.192541403207271E-05
 LT= 3.145040454687958E-02 RG= 5.445468742725724E+00 RR= 8.811490692923117E-05
2461946.115277778 = A.D. 2028-Jun-23 14:46:00.0000 TDB 
 X =-5.444109811859226E+00 Y =-5.977848502307711E-04 Z = 1.218105663965521E-01
 VX=-8.664021424157595E-05 VY=-7.199813996683995E-03 VZ= 3.191863327741347E-05
 LT= 3.145042575218362E-02 RG= 5.445472414310302E+00 RR= 8.812289742261968E-05
2461946.156944444 = A.D. 2028-Jun-23 15:46:00.0000 TDB 
 X =-5.444113413953806E+00 Y =-8.977754254374530E-04 Z = 1.218118961947633E-01
 VX=-8.626205229428232E-05 VY=-7.199734014369877E-03 VZ= 3.191164144821785E-05
 LT= 3.145044696066631E-02 RG= 5.445476086445247E+00 RR= 8.814130302187957E-05
2461946.198611111 = A.D. 2028-Jun-23 16:46:00.0000 TDB 
 X =-5.444117000505688E+00 Y =-1.197762728386225E-03 Z = 1.218132256963814E-01
 VX=-8.589411821272870E-05 VY=-7.199657173312919E-03 VZ= 3.190438869967372E-05
 LT= 3.145046817481190E-02 RG= 5.445479759560691E+00 RR= 8.816991485151101E-05
2461946.240277778 = A.D. 2028-Jun-23 17:46:00.0000 TDB 
 X =-5.444120571934743E+00 Y =-1.497746920755568E-03 Z = 1.218145548895272E-01
 VX=-8.553610372744466E-05 VY=-7.199584957815409E-03 VZ= 3.189682668617150E-05
 LT= 3.145048939704014E-02 RG= 5.445483434075605E+00 RR= 8.820842478124542E-05
2461946.281944444 = A.D. 2028-Jun-23 18:46:00.0000 TDB 
 X =-5.444124128642355E+00 Y =-1.797728225998155E-03 Z = 1.218158837603976E-01
 VX=-8.518729794040428E-05 VY=-7.199518773258094E-03 VZ= 3.188891535724386E-05
 LT= 3.145051062966415E-02 RG= 5.445487110390490E+00 RR= 8.825612272093503E-05
2461946.323611111 = A.D. 2028-Jun-23 19:46:00.0000 TDB 
 X =-5.444127670993290E+00 Y =-2.097706917061512E-03 Z = 1.218172122938995E-01
 VX=-8.484687103655530E-05 VY=-7.199459694211420E-03 VZ= 3.188062702606861E-05
 LT= 3.145053187478584E-02 RG= 5.445490788869281E+00 RR= 8.831218021715103E-05
2461946.365277778 = A.D. 2028-Jun-23 20:46:00.0000 TDB 
 X =-5.444131199317770E+00 Y =-2.397683316905786E-03 Z = 1.218185404736549E-01
 VX=-8.451384388344065E-05 VY=-7.199408986811318E-03 VZ= 3.187193140405917E-05
 LT= 3.145055313430795E-02 RG= 5.445494469841427E+00 RR= 8.837561986526130E-05
2461946.406944444 = A.D. 2028-Jun-23 21:46:00.0000 TDB 
 X =-5.444134713900264E+00 Y =-2.697657796736400E-03 Z = 1.218198682822457E-01
 VX=-8.418705148400442E-05 VY=-7.199367688478090E-03 VZ= 3.186280858143694E-05
 LT= 3.145057440986944E-02 RG= 5.445498153590708E+00 RR= 8.844527890405843E-05
